{
    "links": {
        "self": "http://www.neowsapp.com/rest/v1/neo/3893226?api_key=iIulBulltgU6a56xZRHN4H3l9WmuAYTsLGpBGhQ2"
    },
    "id": "3893226",
    "neo_reference_id": "3893226",
    "name": "(2019 VV5)",
    "designation": "2019 VV5",
    "nasa_jpl_url": "http://ssd.jpl.nasa.gov/sbdb.cgi?sstr=3893226",
    "absolute_magnitude_h": 26.7,
    "estimated_diameter": {
        "kilometers": {
            "estimated_diameter_min": 0.0121494041,
            "estimated_diameter_max": 0.0271668934
        },
        "meters": {
            "estimated_diameter_min": 12.14940408,
            "estimated_diameter_max": 27.1668934089
        },
        "miles": {
            "estimated_diameter_min": 0.0075492874,
            "estimated_diameter_max": 0.0168807197
        },
        "feet": {
            "estimated_diameter_min": 39.8602508817,
            "estimated_diameter_max": 89.1302305717
        }
    },
    "is_potentially_hazardous_asteroid": false,
    "close_approach_data": [
        {
            "close_approach_date": "1930-11-01",
            "close_approach_date_full": "1930-Nov-01 20:50",
            "epoch_date_close_approach": -1235963400000,
            "relative_velocity": {
                "kilometers_per_second": "15.6298227114",
                "kilometers_per_hour": "56267.361761103",
                "miles_per_hour": "34962.3504231698"
            },
            "miss_distance": {
                "astronomical": "0.0709552529",
                "lunar": "27.6015933781",
                "kilometers": "10614754.699151323",
                "miles": "6595702.7232533374"
            },
            "orbiting_body": "Earth"
        },
        {
            "close_approach_date": "2019-10-27",
            "close_approach_date_full": "2019-Oct-27 14:52",
            "epoch_date_close_approach": 1572187920000,
            "relative_velocity": {
                "kilometers_per_second": "14.0807225689",
                "kilometers_per_hour": "50690.601247955",
                "miles_per_hour": "31497.1683143196"
            },
            "miss_distance": {
                "astronomical": "0.0079590419",
                "lunar": "3.0960672991",
                "kilometers": "1190655.715480753",
                "miles": "739839.1548022714"
            },
            "orbiting_body": "Moon"
        },
        {
            "close_approach_date": "2019-10-27",
            "close_approach_date_full": "2019-Oct-27 21:35",
            "epoch_date_close_approach": 1572212100000,
            "relative_velocity": {
                "kilometers_per_second": "13.5399531438",
                "kilometers_per_hour": "48743.8313175914",
                "miles_per_hour": "30287.5211873112"
            },
            "miss_distance": {
                "astronomical": "0.0075295338",
                "lunar": "2.9289886482",
                "kilometers": "1126402.218573006",
                "miles": "699913.8831832428"
            },
            "orbiting_body": "Earth"
        }
    ],
    "orbital_data": {
        "orbit_id": "1",
        "orbit_determination_date": "2019-11-16 19:12:02",
        "first_observation_date": "2019-11-02",
        "last_observation_date": "2019-11-05",
        "data_arc_in_days": 3,
        "observations_used": 10,
        "orbit_uncertainty": "9",
        "minimum_orbit_intersection": ".00672623",
        "jupiter_tisserand_invariant": "3.644",
        "epoch_osculation": "2458791.5",
        "eccentricity": ".5702315288700204",
        "semi_major_axis": "1.972336005865447",
        "inclination": "6.301140978083756",
        "ascending_node_longitude": "37.62154155497053",
        "orbital_period": "1011.742005525558",
        "perihelion_distance": ".8476478297954037",
        "perihelion_argument": "302.7999436619728",
        "aphelion_distance": "3.09702418193549",
        "perihelion_time": "2458746.520037631001",
        "mean_anomaly": "16.00485732963924",
        "mean_motion": ".3558219368513763",
        "equinox": "J2000",
        "orbit_class": {
            "orbit_class_type": "APO",
            "orbit_class_description": "Near-Earth asteroid orbits which cross the Earth’s orbit similar to that of 1862 Apollo",
            "orbit_class_range": "a (semi-major axis) > 1.0 AU; q (perihelion) < 1.017 AU"
        }
    },
    "is_sentry_object": false
}